[{"OBJECT_NAME":"IRIDIUM 106","OBJECT_ID":"2017-003A","EPOCH":"2026-04-27T00:35:54.295008","MEAN_MOTION":14.34217124,"ECCENTRICITY":0.0002519,"INCLINATION":86.3928,"RA_OF_ASC_NODE":109.9492,"ARG_OF_PERICENTER":84.4101,"MEAN_ANOMALY":275.7382,"EPHEMERIS_TYPE":0,"CLASSIFICATION_TYPE":"U","NORAD_CAT_ID":41917,"ELEMENT_SET_NO":999,"REV_AT_EPOCH":48587,"BSTAR":-1.172e-5,"MEAN_MOTION_DOT":-1.3e-7,"MEAN_MOTION_DDOT":0},{"OBJECT_NAME":"IRIDIUM 103","OBJECT_ID":"2017-003B","EPOCH":"2026-04-27T05:19:02.184384","MEAN_MOTION":14.34217186,"ECCENTRICITY":0.0002213,"INCLINATION":86.3929,"RA_OF_ASC_NODE":109.7669,"ARG_OF_PERICENTER":96.8485,"MEAN_ANOMALY":263.2963,"EPHEMERIS_TYPE":0,"CLASSIFICATION_TYPE":"U","NORAD_CAT_ID":41918,"ELEMENT_SET_NO":999,"REV_AT_EPOCH":48592,"BSTAR":-1.2038e-5,"MEAN_MOTION_DOT":-1.4e-7,"MEAN_MOTION_DDOT":0},{"OBJECT_NAME":"IRIDIUM 109","OBJECT_ID":"2017-003C","EPOCH":"2026-04-27T05:28:10.185888","MEAN_MOTION":14.34216982,"ECCENTRICITY":0.0002159,"INCLINATION":86.3929,"RA_OF_ASC_NODE":109.8229,"ARG_OF_PERICENTER":90.4503,"MEAN_ANOMALY":269.694,"EPHEMERIS_TYPE":0,"CLASSIFICATION_TYPE":"U","NORAD_CAT_ID":41919,"ELEMENT_SET_NO":999,"REV_AT_EPOCH":48589,"BSTAR":-2.7467e-5,"MEAN_MOTION_DOT":-5.7e-7,"MEAN_MOTION_DDOT":0},{"OBJECT_NAME":"IRIDIUM 102","OBJECT_ID":"2017-003D","EPOCH":"2026-04-27T01:21:34.235136","MEAN_MOTION":14.3421768,"ECCENTRICITY":0.0002286,"INCLINATION":86.3923,"RA_OF_ASC_NODE":109.8192,"ARG_OF_PERICENTER":87.7657,"MEAN_ANOMALY":272.38,"EPHEMERIS_TYPE":0,"CLASSIFICATION_TYPE":"U","NORAD_CAT_ID":41920,"ELEMENT_SET_NO":999,"REV_AT_EPOCH":48595,"BSTAR":6.9636e-6,"MEAN_MOTION_DOT":3.9e-7,"MEAN_MOTION_DDOT":0},{"OBJECT_NAME":"IRIDIUM 105","OBJECT_ID":"2017-003E","EPOCH":"2026-04-27T03:44:24.447264","MEAN_MOTION":14.34397553,"ECCENTRICITY":0.0002285,"INCLINATION":86.3944,"RA_OF_ASC_NODE":78.2039,"ARG_OF_PERICENTER":87.5643,"MEAN_ANOMALY":272.5815,"EPHEMERIS_TYPE":0,"CLASSIFICATION_TYPE":"U","NORAD_CAT_ID":41921,"ELEMENT_SET_NO":999,"REV_AT_EPOCH":48782,"BSTAR":2.0197e-5,"MEAN_MOTION_DOT":7.7e-7,"MEAN_MOTION_DDOT":0},{"OBJECT_NAME":"IRIDIUM 104","OBJECT_ID":"2017-003F","EPOCH":"2026-04-27T05:00:46.119168","MEAN_MOTION":14.34217331,"ECCENTRICITY":0.0002051,"INCLINATION":86.3929,"RA_OF_ASC_NODE":109.7973,"ARG_OF_PERICENTER":95.7988,"MEAN_ANOMALY":264.3441,"EPHEMERIS_TYPE":0,"CLASSIFICATION_TYPE":"U","NORAD_CAT_ID":41922,"ELEMENT_SET_NO":999,"REV_AT_EPOCH":48596,"BSTAR":-1.0952e-5,"MEAN_MOTION_DOT":-1.1e-7,"MEAN_MOTION_DDOT":0},{"OBJECT_NAME":"IRIDIUM 114","OBJECT_ID":"2017-003G","EPOCH":"2026-04-27T01:48:58.245696","MEAN_MOTION":14.34217464,"ECCENTRICITY":0.0002149,"INCLINATION":86.3929,"RA_OF_ASC_NODE":109.8365,"ARG_OF_PERICENTER":94.2485,"MEAN_ANOMALY":265.8956,"EPHEMERIS_TYPE":0,"CLASSIFICATION_TYPE":"U","NORAD_CAT_ID":41923,"ELEMENT_SET_NO":999,"REV_AT_EPOCH":48592,"BSTAR":-1.9891e-6,"MEAN_MOTION_DOT":1.4e-7,"MEAN_MOTION_DDOT":0},{"OBJECT_NAME":"IRIDIUM 108","OBJECT_ID":"2017-003H","EPOCH":"2026-04-26T21:28:18.473664","MEAN_MOTION":14.34217665,"ECCENTRICITY":0.0002226,"INCLINATION":86.3937,"RA_OF_ASC_NODE":78.2053,"ARG_OF_PERICENTER":83.393,"MEAN_ANOMALY":276.7519,"EPHEMERIS_TYPE":0,"CLASSIFICATION_TYPE":"U","NORAD_CAT_ID":41924,"ELEMENT_SET_NO":999,"REV_AT_EPOCH":48775,"BSTAR":7.3227e-6,"MEAN_MOTION_DOT":4.0e-7,"MEAN_MOTION_DDOT":0},{"OBJECT_NAME":"IRIDIUM 112","OBJECT_ID":"2017-003J","EPOCH":"2026-04-27T01:30:42.247008","MEAN_MOTION":14.34218081,"ECCENTRICITY":0.0002191,"INCLINATION":86.3919,"RA_OF_ASC_NODE":109.6861,"ARG_OF_PERICENTER":91.8661,"MEAN_ANOMALY":268.2785,"EPHEMERIS_TYPE":0,"CLASSIFICATION_TYPE":"U","NORAD_CAT_ID":41925,"ELEMENT_SET_NO":999,"REV_AT_EPOCH":48594,"BSTAR":5.2145e-5,"MEAN_MOTION_DOT":1.66e-6,"MEAN_MOTION_DDOT":0},{"OBJECT_NAME":"IRIDIUM 111","OBJECT_ID":"2017-003K","EPOCH":"2026-04-27T01:12:26.244000","MEAN_MOTION":14.34217503,"ECCENTRICITY":0.0002212,"INCLINATION":86.3926,"RA_OF_ASC_NODE":109.7608,"ARG_OF_PERICENTER":90.9972,"MEAN_ANOMALY":269.1477,"EPHEMERIS_TYPE":0,"CLASSIFICATION_TYPE":"U","NORAD_CAT_ID":41926,"ELEMENT_SET_NO":999,"REV_AT_EPOCH":48592,"BSTAR":-2.3681e-6,"MEAN_MOTION_DOT":1.3e-7,"MEAN_MOTION_DDOT":0},{"OBJECT_NAME":"IRIDIUM 113","OBJECT_ID":"2017-039A","EPOCH":"2026-04-27T02:24:03.142368","MEAN_MOTION":14.34217689,"ECCENTRICITY":0.0001974,"INCLINATION":86.3989,"RA_OF_ASC_NODE":343.5397,"ARG_OF_PERICENTER":91.1306,"MEAN_ANOMALY":269.0116,"EPHEMERIS_TYPE":0,"CLASSIFICATION_TYPE":"U","NORAD_CAT_ID":42803,"ELEMENT_SET_NO":999,"REV_AT_EPOCH":46386,"BSTAR":1.5926e-6,"MEAN_MOTION_DOT":2.4e-7,"MEAN_MOTION_DDOT":0},{"OBJECT_NAME":"IRIDIUM 123","OBJECT_ID":"2017-039B","EPOCH":"2026-04-27T01:43:18.911424","MEAN_MOTION":14.34217908,"ECCENTRICITY":0.0002361,"INCLINATION":86.4015,"RA_OF_ASC_NODE":14.998,"ARG_OF_PERICENTER":87.0136,"MEAN_ANOMALY":273.133,"EPHEMERIS_TYPE":0,"CLASSIFICATION_TYPE":"U","NORAD_CAT_ID":42804,"ELEMENT_SET_NO":999,"REV_AT_EPOCH":46262,"BSTAR":5.7072e-5,"MEAN_MOTION_DOT":1.8e-6,"MEAN_MOTION_DDOT":0},{"OBJECT_NAME":"IRIDIUM 120","OBJECT_ID":"2017-039C","EPOCH":"2026-04-27T02:14:55.146048","MEAN_MOTION":14.34217599,"ECCENTRICITY":0.000211,"INCLINATION":86.3974,"RA_OF_ASC_NODE":343.3313,"ARG_OF_PERICENTER":82.2532,"MEAN_ANOMALY":277.8903,"EPHEMERIS_TYPE":0,"CLASSIFICATION_TYPE":"U","NORAD_CAT_ID":42805,"ELEMENT_SET_NO":999,"REV_AT_EPOCH":46385,"BSTAR":-8.7922e-6,"MEAN_MOTION_DOT":-5.0e-8,"MEAN_MOTION_DDOT":0},{"OBJECT_NAME":"IRIDIUM 115","OBJECT_ID":"2017-039D","EPOCH":"2026-04-27T02:11:08.790144","MEAN_MOTION":14.43280765,"ECCENTRICITY":0.000254,"INCLINATION":86.4516,"RA_OF_ASC_NODE":343.4545,"ARG_OF_PERICENTER":87.1886,"MEAN_ANOMALY":272.9605,"EPHEMERIS_TYPE":0,"CLASSIFICATION_TYPE":"U","NORAD_CAT_ID":42806,"ELEMENT_SET_NO":999,"REV_AT_EPOCH":46689,"BSTAR":4.5431e-5,"MEAN_MOTION_DOT":1.73e-6,"MEAN_MOTION_DDOT":0},{"OBJECT_NAME":"IRIDIUM 118","OBJECT_ID":"2017-039E","EPOCH":"2026-04-27T04:09:26.938080","MEAN_MOTION":14.34218155,"ECCENTRICITY":0.0002181,"INCLINATION":86.4015,"RA_OF_ASC_NODE":14.954,"ARG_OF_PERICENTER":86.1186,"MEAN_ANOMALY":274.0259,"EPHEMERIS_TYPE":0,"CLASSIFICATION_TYPE":"U","NORAD_CAT_ID":42807,"ELEMENT_SET_NO":999,"REV_AT_EPOCH":46263,"BSTAR":4.2652e-5,"MEAN_MOTION_DOT":1.39e-6,"MEAN_MOTION_DDOT":0},{"OBJECT_NAME":"IRIDIUM 117","OBJECT_ID":"2017-039F","EPOCH":"2026-04-27T04:36:50.933088","MEAN_MOTION":14.34218511,"ECCENTRICITY":0.0002332,"INCLINATION":86.4014,"RA_OF_ASC_NODE":14.9043,"ARG_OF_PERICENTER":87.685,"MEAN_ANOMALY":272.4613,"EPHEMERIS_TYPE":0,"CLASSIFICATION_TYPE":"U","NORAD_CAT_ID":42808,"ELEMENT_SET_NO":999,"REV_AT_EPOCH":46266,"BSTAR":5.2166e-5,"MEAN_MOTION_DOT":1.66e-6,"MEAN_MOTION_DDOT":0},{"OBJECT_NAME":"IRIDIUM 126","OBJECT_ID":"2017-039G","EPOCH":"2026-04-27T01:52:26.956128","MEAN_MOTION":14.34217675,"ECCENTRICITY":0.0002204,"INCLINATION":86.4015,"RA_OF_ASC_NODE":15.002,"ARG_OF_PERICENTER":89.4045,"MEAN_ANOMALY":270.7404,"EPHEMERIS_TYPE":0,"CLASSIFICATION_TYPE":"U","NORAD_CAT_ID":42809,"ELEMENT_SET_NO":999,"REV_AT_EPOCH":46262,"BSTAR":1.5649e-7,"MEAN_MOTION_DOT":2.0e-7,"MEAN_MOTION_DDOT":0}]
