IRIDIUM 106             
1 41917U 17003A   26117.02493397 -.00000013  00000+0 -11720-4 0  9997
2 41917  86.3928 109.9492 0002519  84.4101 275.7382 14.34217124485874
IRIDIUM 103             
1 41918U 17003B   26117.22155306 -.00000014  00000+0 -12038-4 0  9999
2 41918  86.3929 109.7669 0002213  96.8485 263.2963 14.34217186485924
IRIDIUM 109             
1 41919U 17003C   26117.22789567 -.00000057  00000+0 -27467-4 0  9991
2 41919  86.3929 109.8229 0002159  90.4503 269.6940 14.34216982485892
IRIDIUM 102             
1 41920U 17003D   26117.05664624  .00000039  00000+0  69636-5 0  9993
2 41920  86.3923 109.8192 0002286  87.7657 272.3800 14.34217680485956
IRIDIUM 105             
1 41921U 17003E   26117.15583851  .00000077  00000+0  20197-4 0  9997
2 41921  86.3944  78.2039 0002285  87.5643 272.5815 14.34397553487825
IRIDIUM 104             
1 41922U 17003F   26117.20886712 -.00000011  00000+0 -10952-4 0  9994
2 41922  86.3929 109.7973 0002051  95.7988 264.3441 14.34217331485962
IRIDIUM 114             
1 41923U 17003G   26117.07567414  .00000014  00000+0 -19891-5 0  9999
2 41923  86.3929 109.8365 0002149  94.2485 265.8956 14.34217464485923
IRIDIUM 108             
1 41924U 17003H   26116.89465826  .00000040  00000+0  73227-5 0  9994
2 41924  86.3937  78.2053 0002226  83.3930 276.7519 14.34217665487758
IRIDIUM 112             
1 41925U 17003J   26117.06298897  .00000166  00000+0  52145-4 0  9991
2 41925  86.3919 109.6861 0002191  91.8661 268.2785 14.34218081485944
IRIDIUM 111             
1 41926U 17003K   26117.05030375  .00000013  00000+0 -23681-5 0  9992
2 41926  86.3926 109.7608 0002212  90.9972 269.1477 14.34217503485926
IRIDIUM 113             
1 42803U 17039A   26117.10003637  .00000024  00000+0  15926-5 0  9997
2 42803  86.3989 343.5397 0001974  91.1306 269.0116 14.34217689463864
IRIDIUM 123             
1 42804U 17039B   26117.07174666  .00000180  00000+0  57072-4 0  9995
2 42804  86.4015  14.9980 0002361  87.0136 273.1330 14.34217908462620
IRIDIUM 120             
1 42805U 17039C   26117.09369382 -.00000005  00000+0 -87922-5 0  9995
2 42805  86.3974 343.3313 0002110  82.2532 277.8903 14.34217599463851
IRIDIUM 115             
1 42806U 17039D   26117.09107396  .00000173  00000+0  45431-4 0  9993
2 42806  86.4516 343.4545 0002540  87.1886 272.9605 14.43280765466893
IRIDIUM 118             
1 42807U 17039E   26117.17322845  .00000139  00000+0  42652-4 0  9995
2 42807  86.4015  14.9540 0002181  86.1186 274.0259 14.34218155462636
IRIDIUM 117             
1 42808U 17039F   26117.19225617  .00000166  00000+0  52166-4 0  9998
2 42808  86.4014  14.9043 0002332  87.6850 272.4613 14.34218511462661
IRIDIUM 126             
1 42809U 17039G   26117.07808977  .00000020  00000+0  15649-6 0  9998
2 42809  86.4015  15.0020 0002204  89.4045 270.7404 14.34217675462629
